RAVAN                   
1 41849U 16067B   18328.80639241  .00001227  00000-0  10907-3 0  9993
2 41849  97.9238  59.9378 0007747   0.2373 359.8851 14.97998435111176
CELTEE 1                
1 41850U 16067C   18328.79434964  .00000454  00000-0  44853-4 0  9997
2 41850  97.9208  59.0776 0008369 358.5792   1.5404 14.96900303111129
OPTICUBE 04             
1 41851U 16067D   18328.84344063 -.00000159  00000-0 -85948-5 0  9999
2 41851  97.9204  58.9941 0008776 358.3998   1.7194 14.96729379111126
AEROCUBE 8D             
1 41852U 16067E   18328.83034937 -.00000276  00000-0 -18859-4 0  9991
2 41852  97.9223  58.8114 0009622 359.0011   1.1189 14.96594442111101
AEROCUBE 8C             
1 41853U 16067F   18328.24660923  .00000099  00000-0  14029-4 0  9993
2 41853  97.9215  58.1722 0009864   0.7731 359.3503 14.96554114111018
PROMETHEUS 2-1          
1 41854U 16067G   18328.30622807 -.00000014  00000-0  40729-5 0  9995
2 41854  97.9225  58.2868 0010215 359.8230   0.2986 14.96709000111020
PROMETHEUS 2-3          
1 41855U 16067H   18328.84381124  .00000155  00000-0  18917-4 0  9997
2 41855  97.9225  58.8396 0010297 358.1651   1.9530 14.96708709111109
ITF-2                   
1 41932U 98067KU  18328.77428577  .00137989  18815-4  32134-3 0  9998
2 41932  51.6247 224.2231 0005623 144.4238 215.7146 15.96762103106210
INS-1B                  
1 41954U 17008G   18328.61126662  .00001222  00000-0  54242-4 0  9999
2 41954  97.4281  31.1004 0010340 142.7499 217.4457 15.23423823 98425
BGUSAT                  
1 41999U 17008BD  18328.60215937  .00001874  00000-0  77370-4 0  9991
2 41999  97.4335  32.6672 0009077 156.8630 203.3018 15.25258581 97873
DIDO-2                  
1 42000U 17008BE  18328.60381257  .00000889  00000-0  40202-4 0  9993
2 42000  97.4297  31.5938 0009145 159.0550 201.1063 15.23514927 97827
PEASSS                  
1 42015U 17008BV  18328.42833883  .00001138  00000-0  49373-4 0  9992
2 42015  97.4299  32.0786 0006870 162.8277 197.3194 15.24384164 98328
AL-FARABI 1             
1 42016U 17008BW  18328.37270983  .00001418  00000-0  59882-4 0  9990
2 42016  97.4309  32.3516 0006761 162.7001 197.4468 15.24893153 98450
NAYIF-1 (EO-88)         
1 42017U 17008BX  18328.75800375  .00001401  00000-0  59155-4 0  9992
2 42017  97.4306  32.7422 0006761 161.4974 198.6511 15.24921552 98539
HAVELSAT                
1 42700U 98067LH  18328.83383938  .00061217  00000-0  26104-3 0  9993
2 42700  51.6274 246.6002 0005657 135.9832 224.1623 15.84589965 87368
CXBN-2                  
1 42704U 98067LM  18328.77863430  .00066218  00000-0  28972-3 0  9991
2 42704  51.6303 248.5420 0004574 113.7162 246.4321 15.84026334 87253
PHOENIX                 
1 42706U 98067LP  18328.79903907  .00033009  00000-0  19726-3 0  9998
2 42706  51.6294 253.2344 0003221  95.0804 265.0565 15.77547164 87185
X-CUBESAT               
1 42707U 98067LQ  18328.24870315  .00085583  00000-0  31761-3 0  9992
2 42707  51.6276 247.8378 0004885 122.0539 238.0941 15.87333119 87198
QBEE50-LTU-OC           
1 42708U 98067LR  18328.85662438  .00064499  00000-0  27935-3 0  9996
2 42708  51.6279 247.5239 0004019 124.2821 235.8563 15.84253572 87211
ALTAIR PATHFINDER       
1 42711U 98067LS  18328.87385906  .00017811  00000-0  15279-3 0  9998
2 42711  51.6349 267.3480 0004725  78.9320 281.2208 15.69468552 86662
SHARC                   
1 42712U 98067LT  18328.84100369  .00039468  00000-0  27844-3 0  9997
2 42712  51.6351 267.1878 0004312  94.6263 265.5228 15.73640723 86909
ZA-AEROSAT              
1 42713U 98067LU  18328.84932914  .00030664  00000-0  19665-3 0  9998
2 42713  51.6345 257.3341 0003884  91.9895 268.1549 15.75980251 86790
CSUNSAT 1               
1 42715U 98067LW  18328.82835475  .00036494  00000-0  21726-3 0  9990
2 42715  51.6348 255.7056 0005098  91.0436 269.1148 15.77571531 86819
SPACECUBE               
1 42717U 98067LY  18328.77158615  .00064798  00000-0  28372-3 0  9992
2 42717  51.6238 248.3696 0005072 132.0435 228.1000 15.84015593 86275
HOOPOE                  
1 42718U 98067LZ  18328.81113368  .00222406  31142-4  48667-3 0  9990
2 42718  51.6231 238.7503 0006283 149.6627 210.4747 15.97708263 86405
NJUST-1                 
1 42722U 98067MB  18328.85470105  .00030635  00000-0  21293-3 0  9996
2 42722  51.6348 260.3284 0006475 109.6790 289.1111 15.74105045 85823
UNSW-ECO                
1 42723U 98067MC  18328.85811073  .00597314  19739-3  61029-3 0  9995
2 42723  51.6341 235.4246 0006929 167.6591 192.4594 16.10143959 86138
LILACSAT-1              
1 42725U 98067ME  18328.82042506  .00057526  00000-0  29772-3 0  9994
2 42725  51.6367 253.2830 0006078 114.0652 289.2613 15.80467542 85829
NSIGHT-1                
1 42726U 98067MF  18328.86196970  .00008389  00000-0  89732-4 0  9990
2 42726  51.6388 275.6508 0005958 110.1582 250.0055 15.64830977 85530
SNUSAT-1                
1 42727U 98067MG  18328.83175108  .00045601  00000-0  24000-3 0  9992
2 42727  51.6318 253.3665 0006791 102.7589 257.4172 15.80192338 85789
I-INSPIRE II            
1 42731U 98067ML  18328.65367517  .20606057  12514-4  45736-3 0  9990
2 42731  51.6195 233.0809 0005495 228.6465 131.7518 16.46306360 85922
POLYITAN-2-SAU          
1 42732U 98067MM  18328.22212943  .00082786  00000-0  31398-3 0  9993
2 42732  51.6296 249.2350 0006274 106.5779 253.5915 15.86891335 85673
SNUSAT-1B               
1 42733U 98067MN  18328.81365342  .00057549  00000-0  27527-3 0  9999
2 42733  51.6285 250.9957 0006566 100.5618 259.6125 15.82169829 85700
BEEAGLESAT              
1 42736U 98067MR  18328.27744689  .00042829  00000-0  24560-3 0  9996
2 42736  51.6316 257.9698 0006746 114.7791 245.3912 15.78322103 85624
UCLSAT                  
1 42765U 17036A   18328.42573407  .00001202  00000-0  55261-4 0  9993
2 42765  97.3816  25.5490 0010429 229.2452 130.7880 15.22240314 79677
LITUANICASAT-2          
1 42768U 17036D   18328.78439069  .00001800  00000-0  81728-4 0  9991
2 42768  97.3839  25.4549 0014546 218.5230 141.4969 15.21995046 78986
AALTO-1                 
1 42775U 17036L   18328.83281874  .00000645  00000-0  32146-4 0  9990
2 42775  97.3805  25.1390 0013156 216.6668 143.3668 15.21004829 78918
URSA MAIOR              
1 42776U 17036M   18328.61244407  .00000807  00000-0  39307-4 0  9994
2 42776  97.3813  25.0110 0012954 217.5190 142.5143 15.21111357 78882
COMPASS 2               
1 42777U 17036N   18328.43198390  .00001520  00000-0  69046-4 0  9990
2 42777  97.3841  25.5157 0011765 220.3037 139.7328 15.22240507 78885
DIAMOND RED             
1 42783U 17036U   18328.60046669  .00000913  00000-0  43241-4 0  9991
2 42783  97.3816  25.4767 0011078 229.1316 130.8961 15.21784882 78900
PEGASUS                 
1 42784U 17036V   18328.61560336  .00001061  00000-0  49435-4 0  9991
2 42784  97.3818  25.6194 0010987 228.9066 131.1222 15.22027979 78919
DIAMOND GREEN           
1 42785U 17036W   18328.59924406  .00000935  00000-0  44205-4 0  9990
2 42785  97.3818  25.4934 0010969 229.7717 130.2560 15.21784249 78972
DIAMOND BLUE            
1 42786U 17036X   18328.59830736  .00000920  00000-0  43547-4 0  9995
2 42786  97.3817  25.4921 0010802 229.9308 130.0982 15.21786434 78976
NUDTSAT                 
1 42787U 17036Y   18328.59641668  .00001676  00000-0  74683-4 0  9994
2 42787  97.3851  25.9812 0009979 238.1035 121.9230 15.22769978 78779
SUCHAI                  
1 42788U 17036Z   18328.60712597  .00001225  00000-0  56053-4 0  9998
2 42788  97.3821  25.7853 0010600 228.2344 131.7987 15.22359833 78993
SKCUBE                  
1 42789U 17036AA  18328.61190818  .00001165  00000-0  53541-4 0  9998
2 42789  97.3818  25.7672 0010455 228.1525 131.8820 15.22294543 78912
VZLUSAT-1               
1 42790U 17036AB  18328.38694564  .00001609  00000-0  71797-4 0  9997
2 42790  97.3828  25.7783 0010089 228.6342 131.4028 15.22779181 78892
ROBUSTA-1B              
1 42792U 17036AD  18328.56459645  .00001168  00000-0  53449-4 0  9992
2 42792  97.3818  25.8178 0010010 229.0960 130.9411 15.22452913 78922
CICERO 6                
1 42793U 17036AE  18328.38368586  .00000913  00000-0  42764-4 0  9991
2 42793  97.3806  25.5666 0009144 231.0939 128.9482 15.22198079 78963
D-SAT                   
1 42794U 17036AF  18328.37998123  .00000230  00000-0  25240-4 0  9999
2 42794  97.5708  16.8067 0128335 108.8515 252.6671 14.90973163 77592
TOKI                    
1 42820U 98067MU  18328.26351852  .00037756  00000-0  23013-3 0  9990
2 42820  51.6338 261.6560 0004212  88.8131 271.3352 15.77027274 79054
MAZAALAI (NUMSAT-1)     
1 42822U 98067MW  18328.84489817  .00035853  00000-0  22423-3 0  9999
2 42822  51.6352 259.5537 0004500  91.1470 269.0045 15.76467237 79098
BRAC ONNESHA            
1 42823U 98067MX  18328.25303757  .00038605  00000-0  23858-3 0  9994
2 42823  51.6311 262.3723 0006005  87.9616 272.2071 15.76691706 79028
NIGERIAEDUSAT-1         
1 42824U 98067MY  18328.81552289  .00035288  00000-0  22255-3 0  9997
2 42824  51.6358 260.1607 0006212  94.2639 265.9070 15.76273225 79078
CORVUS BC2              
1 42846U 17042X   18328.50939636  .00000080  00000-0  13206-4 0  9995
2 42846  97.5831 225.4550 0010405  30.3322 329.8498 14.91887671 74270
CORVUS BC1              
1 42847U 17042Y   18328.61056117  .00000259  00000-0  30841-4 0  9994
2 42847  97.5831 225.6259 0010016  29.5940 330.5844 14.91987500 74280
SILU-1 (SILKROAD 1)     
1 42903U 17021F   18328.75464709  .00045488  00000-0  21624-3 0  9990
2 42903  42.7748  69.3570 0015758 358.2919 133.5815 15.81939774 75265
MIRATA                  
1 43015U 17073C   18328.50583637  .00000911  00000-0  76134-4 0  9996
2 43015  97.7118 252.8685 0258260 109.3511 253.5816 14.78495284 54828
MAKERSAT 0              
1 43016U 17073D   18328.35987341  .00000594  00000-0  51270-4 0  9991
2 43016  97.7149 252.8959 0260002 109.9610 252.9806 14.78393456 54796
